#aV2021  9 18  0  0  0.00000000     288 DD+AD WGS84 FIT  NGA
## 2175 518400.00000000   300.00000000 59475 0.0000000000000
+   32     1  2  3  4  5  6  7  8  9 10 11 12 13 14 15 16 17
+         18 19 20 21 22 23 24 25 26 27 28 29 30 31 32  0  0
+          0  0  0  0  0  0  0  0  0  0  0  0  0  0  0  0  0
+          0  0  0  0  0  0  0  0  0  0  0  0  0  0  0  0  0
+          0  0  0  0  0  0  0  0  0  0  0  0  0  0  0  0  0
++         2  2  2  2  2  2  2  2  2  2  2  2  2  2  2  2  2
++         2  2  2  2  2  2  2  2  2  2  2  2  2  2  2  0  0
++         0  0  0  0  0  0  0  0  0  0  0  0  0  0  0  0  0
++         0  0  0  0  0  0  0  0  0  0  0  0  0  0  0  0  0
++         0  0  0  0  0  0  0  0  0  0  0  0  0  0  0  0  0
%c cc cc ccc ccc cccc cccc cccc cccc ccccc ccccc ccccc ccccc
%c cc cc ccc ccc cccc cccc cccc cccc ccccc ccccc ccccc ccccc
%f  0.0000000  0.000000000  0.00000000000  0.000000000000000
%f  0.0000000  0.000000000  0.00000000000  0.000000000000000
%i    0    0    0    0      0      0      0      0         0
%i    0    0    0    0      0      0      0      0         0
/*      NGA, ST. LOUIS,MO.                                  
/*   EPHEMERIS COMPUTED FROM 2 DAYS OF DATA                 
/*   EPOCHA v7 SMOOTHER                                     
/*   G2139 IERS2010 SATIGS SATAPC                           
*  2021  9 18  5  5  0.00000000
P  1   8453.216882 -19026.000245 -16563.989837    564.424273                    
V  1  17865.988974 -10360.096040  21695.325772     -0.110426                    
P  2 -21824.446081  14625.180383  -3513.334859   -632.927722                    
V  2   2375.830432  -5407.548903 -31364.408219     -0.020787                    
P  3   -543.035051 -16245.016834 -21130.816000   -293.312910                    
V  3  24282.606553  10724.200701  -8811.577286     -0.133905                    
P  4    900.485919 -26317.341389  -3177.200086   -204.279172                    
V  4   3037.176380   3899.535732 -31466.606088      0.000869                    
P  5 -13607.079395   9858.073386  20439.261110    -54.781211                    
V  5 -23857.516221 -11113.485488 -10280.477378     -0.012493                    
P  6 -21669.752292   2833.264465 -15073.494368     76.639355                    
V  6  14923.090773 -12133.481019 -23586.888207      0.074307                    
P  7  -7477.695392 -13733.540826  21815.936970    247.203320                    
V  7  22410.618292 -14870.073559  -2198.998387      0.070091                    
P  8   7300.534616 -21381.836527  13694.351929    -36.900493                    
V  8   4056.411200  17195.717539  24970.126749     -0.013856                    
P  9  -7999.615612 -24069.069636   7772.691275   -361.110730                    
V  9   1837.278498 -10216.785107 -29512.226695     -0.005535                    
P 10  23958.130581  11803.943464    815.930769   -205.604244                    
V 10  -1764.036499   1686.916233  31752.870053     -0.078817                    
P 11 -23804.122480  10859.046367  -4550.309160     18.466023                    
V 11   3460.315155  -5382.317823 -31052.030766      0.021593                    
P 12  -1369.840687  16001.576284 -21427.475953    -98.985924                    
V 12 -23420.709533 -12549.713293  -7837.877843     -0.054478                    
P 13 -12853.965594  14885.033209  17635.836264    187.066598                    
V 13   -532.303664 -22769.284056  18822.743526      0.053892                    
P 14 -23452.320437 -12524.958169    311.020460     -0.962609                    
V 14   1719.759156  -2432.265624  31594.328067     -0.080583                    
P 15  -4999.008292  22421.657068  12646.188623   -120.302327                    
V 15  -6742.977305 -15847.637596  25022.339870      0.027360                    
P 16  18223.612767  -4191.518547  18793.901067   -392.476604                    
V 16  20331.488758  13158.629482 -16116.914388     -0.063678                    
P 17 -12401.971478 -14490.961896 -18047.337273    506.328875                    
V 17    795.158517 -23781.452929  18127.864311      0.055704                    
P 18   8659.626380  12285.030608  21886.379568    321.071865                    
V 18 -23139.506903  15394.537877    423.795423     -0.043946                    
P 19 -14593.614000  -4946.769171 -21923.613678     54.411876                    
V 19    873.014107 -27098.644324   5447.909659      0.049772                    
P 20 -22380.793095   3680.359393  13574.994534    519.083209                    
V 20 -15886.073659  -7762.022130 -24297.131166     -0.001890                    
P 21  15024.212241 -19662.099197  -8174.902299    143.289961                    
V 21  10978.427567  -4723.378194  29641.024079      0.019472                    
P 22   7432.365694 -13921.321630 -21177.757768   -510.512630                    
V 22  25729.688988   9453.928498   2993.683556      0.092825                    
P 23  17583.796588  16337.992118  11428.882846     56.083616                    
V 23 -14194.079768  -3774.389761  27102.690762     -0.048592                    
P 24 -11219.321264  20676.015021 -12190.865223    237.001875                    
V 24 -13902.854719   7124.793273  25830.916996      0.082758                    
P 25   9939.208937  17977.479589 -17245.208646    210.127365                    
V 25 -19946.367449  -7603.576756 -19459.189622      0.062838                    
P 26  24858.302718   2996.253869   9215.192726    135.429207                    
V 26   9721.262545   7189.567409 -28099.194432      0.041916                    
P 27  12390.058915 -12259.095584  19745.356756   -194.447225                    
V 27   3389.134705  25349.501654  13846.295339     -0.052652                    
P 28 -23863.656456  -9537.896565  -5734.080026    499.043532                    
V 28  -5552.707372  -6371.968517  30981.160316     -0.071581                    
P 29   3927.090877  25640.072929   5498.409653   -413.384814                    
V 29  -2019.479762   7057.468662 -31277.012730     -0.057567                    
P 30 -17713.579743  -5234.571368  19235.898989   -473.977648                    
V 30  19443.976296 -14627.943065  13737.959787     -0.038027                    
P 31  22992.367075  -3995.358064 -13203.623836   -140.354100                    
V 31 -12611.187141  10741.485500 -24933.818779     -0.020229                    
P 32  14700.613748  10386.647709 -19474.729310     -1.523495                    
V 32   1065.517334  24935.328002  13846.422756     -0.034998                    
EOF
